TEVEL2-8                
1 63239U 25052AF  26068.66815442  .00019130  00000+0  69304-3 0  9993
2 63239  97.4055 324.2923 0008031 124.9191 235.2804 15.28392908 54807
STARLINK-35511          
1 66344U 25253AB  26068.45995577  .00032209  00000+0  11745-2 0  9998
2 66344  43.0017 213.4255 0001451 243.6652 116.4050 15.27591717 20218
